[{"OBJECT_NAME":"CS1","OBJECT_ID":"2021-088B","EPOCH":"2026-03-09T18:02:30.253920","MEAN_MOTION":15.31848439,"ECCENTRICITY":0.00141292,"INCLINATION":97.3882,"RA_OF_ASC_NODE":132.1684,"ARG_OF_PERICENTER":78.0335,"MEAN_ANOMALY":282.249,"EPHEMERIS_TYPE":0,"CLASSIFICATION_TYPE":"U","NORAD_CAT_ID":49261,"ELEMENT_SET_NO":999,"REV_AT_EPOCH":24518,"BSTAR":0.00051175576,"MEAN_MOTION_DOT":0.00015722,"MEAN_MOTION_DDOT":0},{"OBJECT_NAME":"STARLINK-34417","OBJECT_ID":"2025-137Z","EPOCH":"2026-03-09T23:16:17.822208","MEAN_MOTION":15.30199504,"ECCENTRICITY":0.00014326,"INCLINATION":53.1596,"RA_OF_ASC_NODE":321.2254,"ARG_OF_PERICENTER":69.9247,"MEAN_ANOMALY":290.1908,"EPHEMERIS_TYPE":0,"CLASSIFICATION_TYPE":"U","NORAD_CAT_ID":64617,"ELEMENT_SET_NO":999,"REV_AT_EPOCH":4105,"BSTAR":0.0017036147,"MEAN_MOTION_DOT":0.00050439,"MEAN_MOTION_DDOT":0}]
